MEAN_MOTION;ECCENTRICITY;INCLINATION;RA_OF_ASC_NODE;ARG_OF_PERICENTER;MEAN_ANOMALY;BSTAR;MEAN_MOTION_DOT;MEAN_MOTION_DDOT;TYPE
12.08901126;0.0025246;82.9614;33.9455;87.1007;332.8525;-0.00082188;-6.4E-7;0;Amateur
12.08900963;0.0025251;82.9616;33.4018;85.1214;334.9982;-0.00074512;-5.7E-7;0;Amateur
12.0890116;0.0025223;82.9614;32.9046;83.3245;328.7668;-0.0004104;-2.7E-7;0;Amateur
12.08901168;0.0025223;82.9614;32.8582;83.1544;337.7647;-0.0003861;-2.5E-7;0;Amateur
12.0890115;0.0025225;82.9614;32.6251;82.3115;31.1644;-0.00030812;-1.8E-7;0;Amateur
12.08901125;0.0025229;82.9615;32.3641;81.3594;306.5624;-0.00022755;-1.1E-7;0;Amateur
12.08901093;0.0025233;82.9615;32.0734;80.3031;97.5642;-0.000158;-5.0E-8;0;Amateur
12.08901114;0.0025235;82.9617;31.5781;78.499;76.1022;4.2053E-5;1.3E-7;0;Amateur
12.08900763;0.0025273;82.9623;31.2767;77.4003;310.4664;6.861E-5;1.6E-7;0;Amateur
12.08900847;0.002529;82.9624;30.6831;75.2546;348.7179;0.00040103;4.6E-7;0;Amateur
12.08901182;0.0025239;82.962;30.4448;74.3901;86.3573;0.00038767;4.5E-7;0;Amateur
12.08901222;0.0025239;82.962;30.1396;73.2946;352.6003;0.00047916;5.3E-7;0;Amateur
12.08901274;0.0025236;82.9622;29.5964;71.2979;352.085;0.00057639;6.2E-7;0;Amateur
12.08901384;0.0025229;82.9624;29.0529;69.3541;353.7885;0.00070437;7.3E-7;0;Amateur
12.089015;0.0025225;82.9626;28.5091;67.3893;357.7508;0.00079064;8.1E-7;0;Amateur
12.08901643;0.0025211;82.9628;27.967;65.4153;349.2822;0.00086736;8.8E-7;0;Amateur
12.08901688;0.0025228;82.9634;27.7725;64.7206;92.2796;0.001348;1.31E-6;0;Amateur
12.08901722;0.0025232;82.9635;27.7328;64.59;47.7614;0.0013607;1.32E-6;0;Amateur
12.08901863;0.0025219;82.9636;27.4232;63.4648;350.8594;0.0013391;1.3E-6;0;Amateur
12.08901975;0.0025216;82.9636;27.1892;62.6218;51.2636;0.0013416;1.3E-6;0;Amateur
12.08902163;0.0025199;82.9638;26.8798;61.5159;352.5571;0.0013483;1.31E-6;0;Amateur
12.08902249;0.0025191;82.9639;26.6451;60.6713;58.8732;0.0012909;1.26E-6;0;Amateur
12.08902371;0.0025194;82.9639;26.3364;59.5476;354.867;0.0011905;1.17E-6;0;Amateur
12.08902545;0.0025179;82.9641;25.7931;57.5905;356.2275;0.00097761;9.8E-7;0;Amateur
12.08902719;0.0025165;82.9643;25.2498;55.6143;358.1857;0.00079221;8.1E-7;0;Amateur
12.0890281;0.0025144;82.9644;24.7064;53.6214;0.0273;0.00055433;5.9E-7;0;Amateur
12.08902868;0.0025137;82.9645;24.4263;52.5943;68.6246;0.00046444;5.1E-7;0;Amateur
12.08902894;0.0025133;82.9645;24.1631;51.6404;2.6284;0.00034151;4.0E-7;0;Amateur
12.08902901;0.0025123;82.9647;23.5729;49.4968;17.3381;8.2108E-5;1.7E-7;0;Amateur
12.08902894;0.0025108;82.9647;23.0766;47.696;5.944;-9.0046E-5;1.0E-8;0;Amateur
12.08902869;0.0025107;82.9647;23.0292;47.5285;22.4049;-0.00013231;-2.0E-8;0;Amateur
12.08902868;0.0025102;82.9647;22.7966;46.6896;72.6966;-0.00018647;-7.0E-8;0;Amateur
12.08902868;0.0025089;82.9647;22.4864;45.5608;20.7275;-0.00026422;-1.4E-7;0;Amateur
12.08902851;0.0025083;82.9647;22.2534;44.7214;73.6785;-0.0003218;-1.9E-7;0;Amateur
12.08902826;0.002507;82.9648;21.9433;43.5929;20.9898;-0.00040581;-2.7E-7;0;Amateur
12.08902764;0.002505;82.9648;21.4;41.6168;22.8736;-0.00052392;-3.8E-7;0;Amateur
12.08902646;0.002503;82.9647;20.8569;39.6475;23.303;-0.00068696;-5.2E-7;0;Amateur
12.08902603;0.0025023;82.9647;20.6641;38.9459;116.5995;-0.00072322;-5.6E-7;0;Amateur
12.08902529;0.0025011;82.9647;20.3133;37.6654;27.4692;-0.00082155;-6.4E-7;0;Amateur
12.08902354;0.0024988;82.9647;19.7703;35.7031;26.7489;-0.00098579;-7.9E-7;0;Amateur
12.08902277;0.0024977;82.9646;19.5371;34.8545;82.143;-0.0010357;-8.4E-7;0;Amateur
12.08902146;0.0024965;82.9646;19.2268;33.7291;30.3849;-0.0011467;-9.4E-7;0;Amateur
12.08901966;0.0024939;82.9646;18.6836;31.7731;30.2534;-0.0012145;-1.0E-6;0;Amateur
12.08901833;0.0024924;82.9645;18.359;30.586;92.5407;-0.0012401;-1.02E-6;0;Amateur
12.08901764;0.0024916;82.9645;18.1403;29.8025;32.0757;-0.0012275;-1.01E-6;0;Amateur
12.08901578;0.0024886;82.9645;17.5969;27.816;34.6694;-0.0011637;-9.5E-7;0;Amateur
12.089014;0.0024856;82.9644;17.0537;25.8288;34.8592;-0.0010224;-8.3E-7;0;Amateur
12.08901381;0.0024853;82.9644;17.0075;25.6529;42.7288;-0.0010086;-8.1E-7;0;Amateur
12.08901245;0.0024825;82.9643;16.5104;23.8342;35.3105;-0.00081031;-6.3E-7;0;Amateur
12.08901112;0.0024791;82.9642;15.9664;21.8314;41.4917;-0.00055348;-4.0E-7;0;Amateur
12.08901414;0.0024742;82.9635;15.4231;19.7313;40.9249;-0.00022733;-1.1E-7;0;Amateur
12.0890136;0.0024709;82.9635;14.8794;17.7236;44.7931;-8.5675E-5;2.0E-8;0;Amateur
12.08901351;0.0024688;82.9635;14.5121;16.3591;86.5668;3.6326E-5;1.3E-7;0;Amateur
12.08901341;0.0024676;82.9635;14.336;15.7106;46.6072;7.3633E-5;1.6E-7;0;Amateur
12.08901366;0.0024637;82.9635;13.7914;13.7046;57.9633;0.00025696;3.3E-7;0;Amateur
12.08901431;0.0024619;82.9634;13.3807;12.1866;84.2801;0.00043625;4.9E-7;0;Amateur
12.08901452;0.0024609;82.9634;13.2483;11.6917;57.1591;0.00047459;5.2E-7;0;Amateur
12.08901498;0.0024596;82.9634;13.0163;10.8253;101.9769;0.0005686;6.1E-7;0;Amateur
12.08901352;0.0024586;82.9639;12.7055;9.7429;54.2062;0.00098389;9.8E-7;0;Amateur
12.0890144;0.0024569;82.9639;12.4727;8.8871;105.3801;0.0010523;1.04E-6;0;Amateur
12.08901641;0.0024526;82.9638;11.929;6.8697;109.8143;0.0011296;1.11E-6;0;Amateur
12.08901695;0.0024518;82.9638;11.7925;6.3592;114.7446;0.0011466;1.13E-6;0;Amateur
12.08901771;0.0024508;82.9638;11.6197;5.7139;49.2436;0.0011527;1.13E-6;0;Amateur
12.08901948;0.0024467;82.9637;11.0764;3.7028;49.8591;0.0011217;1.1E-6;0;Amateur
12.08902038;0.002445;82.9637;10.7979;2.6456;105.0104;0.0011035;1.09E-6;0;Amateur
12.08902155;0.0024428;82.9637;10.4413;1.3143;61.0787;0.0010751;1.06E-6;0;Amateur
12.08902332;0.0024397;82.9636;9.9894;359.6095;54.9658;0.0010487;1.04E-6;0;Amateur
12.08902492;0.002436;82.9636;9.4905;357.7324;61.9141;0.0010044;1.0E-6;0;Amateur
12.08902689;0.0024315;82.9636;8.8557;355.3517;70.5784;0.00092242;9.2E-7;0;Amateur
12.08902847;0.0024261;82.9635;8.3123;353.2945;72.6219;0.00085688;8.7E-7;0;Amateur
12.08902946;0.0024226;82.9633;7.8603;351.5813;67.2043;0.0007711;7.9E-7;0;Amateur
12.08902947;0.002422;82.9633;7.7688;351.2384;74.7696;0.00070989;7.3E-7;0;Amateur
12.08903047;0.0024181;82.9632;7.3169;349.5348;68.4474;0.00061043;6.4E-7;0;Amateur
12.08903059;0.0024175;82.9632;7.2252;349.1861;77.6547;0.00056536;6.0E-7;0;Amateur
12.08903105;0.0024157;82.9631;6.9919;348.3095;132.5328;0.00050847;5.5E-7;0;Amateur
12.08903164;0.0024137;82.963;6.7732;347.4823;71.8909;0.00047718;5.2E-7;0;Amateur
12.08903174;0.0024131;82.963;6.6819;347.1363;78.4361;0.00042825;4.8E-7;0;Amateur
12.08903239;0.0024087;82.9629;6.138;345.0706;83.6907;0.00023452;3.0E-7;0;Amateur
12.08903238;0.0024047;82.9627;5.595;343.0042;81.1749;-3.0198E-5;7.0E-8;0;Amateur
12.08903119;0.0023992;82.9625;4.9585;340.5913;102.4126;-0.00045837;-3.2E-7;0;Amateur
12.08902639;0.0023948;82.9617;4.2742;337.9541;140.8288;-0.0005954;-4.4E-7;0;Amateur
12.08902588;0.0023931;82.9616;4.0106;336.9558;76.2656;-0.00066786;-5.1E-7;0;Amateur
12.08902708;0.0023877;82.9619;3.375;334.5748;93.9234;-0.0011809;-9.7E-7;0;Amateur
12.08902636;0.0023861;82.9618;3.144;333.6965;130.5707;-0.0012356;-1.02E-6;0;Amateur
12.08902533;0.0023836;82.9617;2.8773;332.6853;90.8415;-0.001293;-1.07E-6;0;Amateur
12.08902368;0.0023801;82.9615;2.4212;330.944;116.2083;-0.0013083;-1.08E-6;0;Amateur
12.08902331;0.0023795;82.9615;2.3336;330.6112;92.5932;-0.0013269;-1.1E-6;0;Amateur
12.08902184;0.0023758;82.9613;1.8827;328.8944;77.2675;-0.0012479;-1.03E-6;0;Amateur
12.08902138;0.0023754;82.9612;1.7901;328.5382;92.9579;-0.0012697;-1.05E-6;0;Amateur
12.08902061;0.0023739;82.9611;1.5132;327.4797;134.3196;-0.0011695;-9.6E-7;0;Amateur
12.08901871;0.0023704;82.9609;1.0125;325.5593;153.7692;-0.0010552;-8.6E-7;0;Amateur
12.08901691;0.0023668;82.9607;0.4688;323.4788;155.2425;-0.00088053;-7.0E-7;0;Amateur
12.08901443;0.0023612;82.9605;359.6149;320.1954;100.3205;-0.00061536;-4.6E-7;0;Amateur
12.08901659;0.00236;82.9598;359.1619;318.3661;98.6818;-0.00043876;-3.0E-7;0;Amateur
12.08901655;0.0023588;82.9597;359.0709;318.0036;102.347;-0.00040748;-2.7E-7;0;Amateur
12.089013;0.0023527;82.9601;358.3884;315.4502;128.6595;-0.00011713;-1.0E-8;0;Amateur
12.08901295;0.0023506;82.9599;358.0286;314.0603;107.1719;-1.4255E-5;8.0E-8;0;Amateur
12.08901306;0.0023501;82.9599;357.9832;313.8868;107.9764;1.0014E-5;1.0E-7;0;Amateur
12.08901333;0.0023472;82.9598;357.4393;311.7708;109.7392;0.00020305;2.8E-7;0;Amateur
12.08901379;0.0023452;82.9597;356.9384;309.8184;130.6336;0.00037131;4.3E-7;0;Amateur
12.08901413;0.0023448;82.9596;356.6547;308.7197;224.8491;0.0004595;5.1E-7;0;Amateur
12.08901448;0.0023425;82.9596;356.3509;307.5276;118.9036;0.00053165;5.7E-7;0;Amateur
12.08901578;0.0023387;82.9595;355.8075;305.3871;117.8176;0.00071872;7.4E-7;0;Amateur
12.08901711;0.0023363;82.9594;355.3096;303.4286;114.011;0.0008857;8.9E-7;0;Amateur
12.08901724;0.0023362;82.9594;355.2631;303.2473;123.1496;0.00089398;9.0E-7;0;Amateur
12.08901968;0.0023343;82.9594;354.5748;300.5526;193.9061;0.0011568;1.13E-6;0;Amateur
12.08902162;0.0023325;82.9593;354.0373;298.4326;145.2191;0.0012712;1.24E-6;0;Amateur
12.08902322;0.0023311;82.9592;353.6303;296.8247;139.4472;0.0013043;1.27E-6;0;Amateur
12.08902596;0.0023296;82.9592;352.9004;293.9492;180.0032;0.001347;1.31E-6;0;Amateur
12.0890263;0.0023295;82.9592;352.8498;293.7511;222.0197;0.0013527;1.31E-6;0;Amateur
12.08902749;0.0023287;82.9591;352.5453;292.5459;121.8464;0.0013074;1.27E-6;0;Amateur
12.08902856;0.0023278;82.9591;352.3111;291.6077;182.7943;0.0013117;1.27E-6;0;Amateur
12.08903157;0.0023248;82.959;351.5025;288.3885;128.4133;0.001099;1.08E-6;0;Amateur
12.0890323;0.0023234;82.959;351.2679;287.4263;192.6478;0.0010193;1.01E-6;0;Amateur
12.08903336;0.0023219;82.9589;350.7222;285.2456;208.731;0.00072179;7.4E-7;0;Amateur
12.08903456;0.0023214;82.9589;350.3697;283.8576;130.2891;0.00057911;6.1E-7;0;Amateur
12.08903466;0.0023211;82.9588;350.1736;283.0771;247.9652;0.00047458;5.2E-7;0;Amateur
12.08903555;0.0023203;82.9588;349.6365;280.9543;196.7186;0.00021619;2.9E-7;0;Amateur
12.08903588;0.0023197;82.9588;349.3262;279.7286;141.9663;6.2698E-5;1.5E-7;0;Amateur
